NORAD_CAT_ID,OBJECT_NAME,OBJECT_TYPE,EPOCH,MEAN_MOTION,ECCENTRICITY,INCLINATION,RA_OF_ASC_NODE,ARG_OF_PERICENTER,MEAN_ANOMALY,BSTAR,MEAN_MOTION_DOT,MEAN_MOTION_DDOT,TLE_LINE0,TLE_LINE1,TLE_LINE2,SEMIMAJOR_AXIS,PERIOD,APOGEE,PERIGEE,DECAYED
50198.0,STARLINK-3264,PAYLOAD,2022-07-26 01:29:49,15.08844768,0.0001506,53.2183,56.6388,62.2509,297.8636,5.4567e-05,5.81e-06,0.0,0 STARLINK-3264,1 50198U 21125AU  22207.06237706  .00000581  00000-0  54567-4 0  9993,2 50198  53.2183  56.6388 0001506  62.2509 297.8636 15.08844768 37067,6917.866,95.437,540.773,538.689,0.0
50198.0,STARLINK-3264,PAYLOAD,2022-07-26 20:34:26,15.0884939,0.0001482,53.2182,53.0707,59.6797,300.4342,0.00016344,2.315e-05,0.0,0 STARLINK-3264,1 50198U 21125AU  22207.85725287  .00002315  00000-0  16344-3 0  9993,2 50198  53.2182  53.0707 0001482  59.6797 300.4342 15.08849390 37188,6917.852,95.437,540.742,538.691,0.0
50198.0,STARLINK-3264,PAYLOAD,2022-07-27 01:20:35,15.08851359,0.000149,53.2183,52.1786,60.1688,299.9452,0.00018081,2.592e-05,0.0,0 STARLINK-3264,1 50198U 21125AU  22208.05597090  .00002592  00000-0  18081-3 0  9992,2 50198  53.2183  52.1786 0001490  60.1688 299.9452 15.08851359 36733,6917.846,95.437,540.741,538.68,0.0
50198.0,STARLINK-3264,PAYLOAD,2022-07-27 12:28:17,15.08847447,0.0001492,53.2183,50.0973,60.7264,299.3877,0.00019549,2.825e-05,0.0,0 STARLINK-3264,1 50198U 21125AU  22208.51965096  .00002825  00000-0  19549-3 0  9997,2 50198  53.2183  50.0973 0001492  60.7264 299.3877 15.08847447 37285,6917.858,95.437,540.755,538.69,0.0
50198.0,STARLINK-3264,PAYLOAD,2022-07-27 20:25:13,15.08841619,0.000152,53.2183,48.6104,61.4458,298.6687,4.803e-05,4.77e-06,0.0,0 STARLINK-3264,1 50198U 21125AU  22208.85085280  .00000477  00000-0  48030-4 0  9991,2 50198  53.2183  48.6104 0001520  61.4458 298.6687 15.08841619 36857,6917.875,95.437,540.7919999999998,538.689,0.0
50198.0,STARLINK-3264,PAYLOAD,2022-07-28 05:57:32,15.08843948,0.0001506999999999,53.2192,46.8259,62.0426,298.0719,9.3613e-05,1.202e-05,0.0,0 STARLINK-3264,1 50198U 21125AU  22209.24829207  .00001202  00000-0  93613-4 0  9994,2 50198  53.2192  46.8259 0001507  62.0426 298.0719 15.08843948 37392,6917.868,95.437,540.776,538.691,0.0
50198.0,STARLINK-3264,PAYLOAD,2022-07-28 20:16:00,15.08850912,0.0001514,53.2192,44.1497,63.2908,296.8239,6.9897e-05,8.25e-06,0.0,0 STARLINK-3264,1 50198U 21125AU  22209.84444518  .00000825  00000-0  69897-4 0  9995,2 50198  53.2192  44.1497 0001514  63.2908 296.8239 15.08850912 37485,6917.847,95.437,540.759,538.665,0.0
50198.0,STARLINK-3264,PAYLOAD,2022-07-28 21:51:24,15.08836637,0.0001516,53.2191,43.8523,68.6956,291.4198,-5.0249e-05,-1.088e-05,0.0,0 STARLINK-3264,1 50198U 21125AU  22209.91069641 -.00001088  00000-0 -50249-4 0  9998,2 50198  53.2191  43.8523 0001516  68.6956 291.4198 15.08836637 37016,6917.891,95.438,540.804,538.707,0.0
50198.0,STARLINK-3264,PAYLOAD,2022-07-29 05:48:19,15.08838245,0.0001598,53.2193,42.3656,64.7544,295.3614,-4.5748e-05,-1.016e-05,0.0,0 STARLINK-3264,1 50198U 21125AU  22210.24189527 -.00001016  00000-0 -45748-4 0  9991,2 50198  53.2193  42.3656 0001598  64.7544 295.3614 15.08838245 37540,6917.886,95.438,540.856,538.645,0.0
50198.0,STARLINK-3264,PAYLOAD,2022-07-29 23:17:34,15.08836913,0.0001666999999999,53.2193,39.0949,65.9658,294.1508,5.212100000000001e-05,5.41e-06,0.0,0 STARLINK-3264,1 50198U 21125AU  22210.97053493  .00000541  00000-0  52121-4 0  9996,2 50198  53.2193  39.0949 0001667  65.9658 294.1508 15.08836913 37172,6917.89,95.438,540.908,538.602,0.0
50198.0,STARLINK-3264,PAYLOAD,2022-07-30 05:39:06,15.08839073,0.0001664,53.2194,37.9054,66.3982,293.7185,5.468399999999999e-05,5.82e-06,0.0,0 STARLINK-3264,1 50198U 21125AU  22211.23549406  .00000582  00000-0  54684-4 0  9991,2 50198  53.2194  37.9054 0001664  66.3982 293.7185 15.08839073 37692,6917.8830000000025,95.438,540.899,538.597,0.0
50198.0,STARLINK-3264,PAYLOAD,2022-07-30 18:22:11,15.08843787,0.0001682,53.2195,35.5267,69.5274,290.5899,5.972e-05,6.63e-06,0.0,0 STARLINK-3264,1 50198U 21125AU  22211.76541100  .00000663  00000-0  59720-4 0  9998,2 50198  53.2195  35.5267 0001682  69.5274 290.5899 15.08843787 37775,6917.869000000002,95.437,540.8969999999998,538.57,0.0
50198.0,STARLINK-3264,PAYLOAD,2022-07-30 21:32:57,15.08845904,0.0001686999999999,53.2194,34.9318,69.9564,290.161,4.6743e-05,4.56e-06,0.0,0 STARLINK-3264,1 50198U 21125AU  22211.89788981  .00000456  00000-0  46743-4 0  9993,2 50198  53.2194  34.9318 0001687  69.9564 290.1610 15.08845904 37315,6917.861999999999,95.437,540.894,538.56,0.0
50198.0,STARLINK-3264,PAYLOAD,2022-07-31 11:51:25,15.08842179,0.0001738,53.2194,32.2558,69.5302,290.5877,0.00015863,2.238e-05,0.0,0 STARLINK-3264,1 50198U 21125AU  22212.49404974  .00002238  00000-0  15863-3 0  9995,2 50198  53.2194  32.2558 0001738  69.5302 290.5877 15.08842179 37887,6917.874,95.437,540.941,538.536,0.0
50198.0,STARLINK-3264,PAYLOAD,2022-07-31 18:12:58,15.0884646,0.0001757,53.2193,31.0665,70.0387,290.0794,0.00017478,2.495e-05,0.0,0 STARLINK-3264,1 50198U 21125AU  22212.75900668  .00002495  00000-0  17478-3 0  9994,2 50198  53.2193  31.0665 0001757  70.0387 290.0794 15.08846460 37928,6917.861,95.437,540.941,538.51,0.0
50198.0,STARLINK-3264,PAYLOAD,2022-08-01 05:20:41,15.08834125,0.0001758,53.2191,28.9851,69.4769,290.6412,2.9135e-05,1.76e-06,0.0,0 STARLINK-3264,1 50198U 21125AU  22213.22269783  .00000176  00000-0  29135-4 0  9991,2 50198  53.2191  28.9851 0001758  69.4769 290.6412 15.08834125 37518,6917.898,95.438,540.98,538.547,0.0
50198.0,STARLINK-3264,PAYLOAD,2022-08-01 18:03:45,15.08841174,0.0001759,53.2189,26.606,69.8691,290.249,5.8201e-05,6.38e-06,0.0,0 STARLINK-3264,1 50198U 21125AU  22213.75261278  .00000638  00000-0  58201-4 0  9999,2 50198  53.2189  26.6060 0001759  69.8691 290.2490 15.08841174 37593,6917.877,95.437,540.9590000000002,538.525,0.0
50198.0,STARLINK-3264,PAYLOAD,2022-08-01 21:14:32,15.08839798,0.0001743,53.219,26.0113,69.858,290.2599,2.7092e-05,1.43e-06,0.0,0 STARLINK-3264,1 50198U 21125AU  22213.88509416  .00000143  00000-0  27092-4 0  9997,2 50198  53.2190  26.0113 0001743  69.8580 290.2599 15.08839798 38093,6917.880999999999,95.438,540.952,538.54,0.0
50198.0,STARLINK-3264,PAYLOAD,2022-08-02 21:05:18,15.08848332,0.0001684,53.2188,21.5506,68.2922,291.825,4.7165e-05,4.63e-06,0.0,0 STARLINK-3264,1 50198U 21125AU  22214.87868571  .00000463  00000-0  47165-4 0  9995,2 50198  53.2188  21.5506 0001684  68.2922 291.8250 15.08848332 38245,6917.855,95.437,540.885,538.555,0.0
50198.0,STARLINK-3264,PAYLOAD,2022-08-02 22:40:41,15.08850744,0.0001705,53.219,21.2533,69.0035,291.1140000000001,6.0818e-05,6.8e-06,0.0,0 STARLINK-3264,1 50198U 21125AU  22214.94492360  .00000680  00000-0  60818-4 0  9993,2 50198  53.2190  21.2533 0001705  69.0035 291.1140 15.08850744 37771,6917.848000000001,95.437,540.8919999999998,538.533,0.0
50198.0,STARLINK-3264,PAYLOAD,2022-08-03 11:23:47,15.08837115,0.0001626,53.2191,18.8746,71.1849,288.932,7.6954e-05,9.37e-06,0.0,0 STARLINK-3264,1 50198U 21125AU  22215.47485297  .00000937  00000-0  76954-4 0  9996,2 50198  53.2191  18.8746 0001626  71.1849 288.9320 15.08837115 37859,6917.889,95.438,540.879,538.629,0.0
50198.0,STARLINK-3264,PAYLOAD,2022-08-03 12:59:10,15.08837898,0.0001663,53.2191,18.5773,72.1164,288.001,8.442e-05,1.056e-05,0.0,0 STARLINK-3264,1 50198U 21125AU  22215.54109265  .00001056  00000-0  84420-4 0  9992,2 50198  53.2191  18.5773 0001663  72.1164 288.0010 15.08837898 38348,6917.887,95.438,540.9019999999998,538.601,0.0
50198.0,STARLINK-3264,PAYLOAD,2022-08-04 12:49:57,15.08843977,0.0001533,53.2182,14.1175,60.8917,299.2229,6.359e-05,7.24e-06,0.0,0 STARLINK-3264,1 50198U 21125AU  22216.53469096  .00000724  00000-0  63590-4 0  9999,2 50198  53.2182  14.1175 0001533  60.8917 299.2229 15.08843977 38499,6917.868,95.437,540.794,538.673,0.0
50198.0,STARLINK-3264,PAYLOAD,2022-08-04 20:46:52,15.08847144,0.0001559,53.2182,12.6307,62.965,297.1501,8.025899999999999e-05,9.9e-06,0.0,0 STARLINK-3264,1 50198U 21125AU  22216.86588819  .00000990  00000-0  80259-4 0  9996,2 50198  53.2182  12.6307 0001559  62.9650 297.1501 15.08847144 38067,6917.859,95.437,540.802,538.645,0.0
50198.0,STARLINK-3264,PAYLOAD,2022-08-05 12:40:44,15.08830737,9.04e-05,53.2189,9.6546,67.9386,292.1702,0.00011637,1.564e-05,0.0,0 STARLINK-3264,1 50198U 21125AU  22217.52829851  .00001564  00000-0  11637-3 0  9995,2 50198  53.2189   9.6546 0000904  67.9386 292.1702 15.08830737 38641,6917.909000000002,95.438,540.399,539.148,0.0
50198.0,STARLINK-3264,PAYLOAD,2022-08-05 20:37:40,15.0883432,0.0001437,53.2181,8.1689,79.6684,280.447,0.00010613,1.401e-05,0.0,0 STARLINK-3264,1 50198U 21125AU  22217.85949932  .00001401  00000-0  10613-3 0  9997,2 50198  53.2181   8.1689 0001437  79.6684 280.4470 15.08834320 38697,6917.898,95.438,540.757,538.769,0.0
50198.0,STARLINK-3264,PAYLOAD,2022-08-06 12:31:31,15.08840093,0.0001157,53.2176,5.1946,68.9013,291.2103,0.00011907,1.608e-05,0.0,0 STARLINK-3264,1 50198U 21125AU  22218.52189631  .00001608  00000-0  11907-3 0  9990,2 50198  53.2176   5.1946 0001157  68.9013 291.2103 15.08840093 38316,6917.88,95.438,540.5459999999998,538.945,0.0
50198.0,STARLINK-3264,PAYLOAD,2022-08-06 18:53:04,15.08844408,0.0001252,53.216,4.0048,65.5711,294.5412,0.00010329,1.357e-05,0.0,0 STARLINK-3264,1 50198U 21125AU  22218.78685243  .00001357  00000-0  10329-3 0  9996,2 50198  53.2160   4.0048 0001252  65.5711 294.5412 15.08844408 38834,6917.8669999999975,95.437,540.5980000000002,538.866,0.0
50198.0,STARLINK-3264,PAYLOAD,2022-08-07 09:11:33,15.08830811,0.0001459,53.2171,1.3295,70.882,289.233,1.5266e-05,-4.5e-07,0.0,0 STARLINK-3264,1 50198U 21125AU  22219.38302111 -.00000045  00000-0  15266-4 0  9993,2 50198  53.2171   1.3295 0001459  70.8820 289.2330 15.08830811 38922,6917.908,95.438,540.783,538.764,0.0
